{"venues": [
		{"name" : "3rd & Lindsley", "address" : [{"street" : "818 3rd Ave S", "city" : "Nashville", "state" : "TN", "zip" : "37210"}], "website" : "http://www.3rdandlindsley.com", "image" : "img/venues/3andl.jpg"},
		{"name" : "12th & Porter", "address" : [{"street" : "114 12th Ave N", "city" : "Nashville", "state" : "TN", "zip" : "37203"}], "website" : "http://www.12andporter.com", "image" : "img/venues/12porter.jpg"},
		{"name" : "Exit/In", "address" : [{"street" : "2208 Elliston Pl", "city" : "Nashville", "state" : "TN", "zip" : "37203"}], "website" : "http://www.exitin.com", "image" : "img/venues/exitin.jpg"},
		{"name" : "Marathon Music Works", "address" : [{"street" : "1402 Clinton St", "city" : "Nashville", "state" : "TN", "zip" : "37203"}], "website" : "http://www.marathonmusicworks.com", "image" : "img/venues/marathon.jpg"},
		{"name" : "The Basement", "address" : [{"street" : "1604 8th Ave S", "city" : "Nashville", "state" : "TN", "zip" : "37203"}], "website" : "http://www.thebasementnashville.do615.com", "image" : "img/venues/basement.jpg"},
		{"name" : "The Rutledge", "address" : [{"street" : "410 4th Ave S", "city" : "Nashville", "state" : "TN", "zip" : "37201"}], "website" : "http://www.therutledgelmv.com", "image" : "img/venues/rutledge.jpg"},
		{"name" : "Mercy Lounge", "address" : [{"street" : "1 Cannery Row", "city" : "Nashville", "state" : "TN", "zip" : "37203"}], "website" : "http://www.mercylounge.com", "image" : "img/venues/mercylounge.jpg"},
		{"name" : "The High Watt", "address" : [{"street" : "1 Cannery Row", "city" : "Nashville", "state" : "TN", "zip" : "37203"}], "website" : "http://www.mercylounge.com", "image" : "img/venues/highwatt.jpg"},
		{"name" : "The Cannery Ballroom", "address" : [{"street" : "1 Cannery Row", "city" : "Nashville", "state" : "TN", "zip" : "37203"}], "website" : "http://www.mercylounge.com", "image" : "img/venues/mercylounge.jpg"},
		{"name" : "Bluebird Café", "address" : [{"street" : "4104 Hillsboro Pike", "city" : "Nashville", "state" : "TN", "zip" : "37215"}], "website" : "http://www.bluebirdcafe.com", "image" : "img/venues/bluebird.jpg"},
		{"name" : "The End", "address" : [{"street" : "2219 Elliston Pl", "city" : "Nashville", "state" : "TN", "zip" : "37203"}], "website" : "http://www.endnashville.com", "image" : "img/venues/theend.jpg"},
		{"name" : "The Listening Room", "address" : [{"street" : "217 2nd Ave S", "city" : "Nashville", "state" : "TN", "zip" : "37201"}], "website" : "http://www.listeningroomcafe.com", "image" : "img/venues/listeningroomcafe.jpg"},
		{"name" : "Hard Rock Café", "address" : [{"street" : "100 Broadway", "city" : "Nashville", "state" : "TN", "zip" : "37201"}], "website" : "http://www.hardrock.com/cafes/nashville", "image" : "img/venues/hardrockcafe.jpeg"},
		{"name" : "Douglas Corner", "address" : [{"street" : "2106 8th Ave S", "city" : "Nashville", "state" : "TN", "zip" : "37204"}], "website" : "http://www.douglascorner.com", "image" : "img/venues/douglascorner.jpg"},
		{"name" : "Wildhorse Saloon", "address" : [{"street" : "120 2nd Ave N", "city" : "Nashville", "state" : "TN", "zip" : "37201"}], "website" : "http://www.wildhorsesaloon.com", "image" : "img/venues/wildhorse.JPG"},
		{"name" : "The Opry", "address" : [{"street" : "2804 Opryland Dr", "city" : "Nashville", "state" : "TN", "zip" : "37214"}], "website" : "http://www.opry.com", "image" : "img/venues/grandoleopry.jpg"},
		{"name" : "Ryman Auditorium", "address" : [{"street" : "116 5th Ave N", "city" : "Nashville", "state" : "TN", "zip" : "37219"}], "website" : "http://www.ryman.com", "image" : "img/venues/ryman.jpg"},
		{"name" : "Bridgestone Arena", "address" : [{"street" : "501 Broadway", "city" : "Nashville", "state" : "TN", "zip" : "37203"}], "website" : "http://www.bridgestonearena.com", "image" : "img/venues/bridgestone.jpg"},
		{"name" : "Belcourt Taps", "address" : [{"street" : "2117 Belcourt Ave", "city" : "Nashville", "state" : "TN", "zip" : "37212"}], "website" : "http://www.belcourttaps.com", "image" : "img/venues/belcourttaps.jpeg"},
		{"name" : "Pucketts", "address" : [{"street" : "500 Church St", "city" : "Nashville", "state" : "TN", "zip" : "37219"}], "website" : "http://www.puckettsgrocery.com", "image" : "img/venues/pucketts.jpg"},
		{"name" : "Music City Roots (Loveless Cafe)", "address" : [{"street" : "8400 Tennessee 100", "city" : "Nashville", "state" : "TN", "zip" : "37221"}], "website" : "http://www.lovelesscafe.com", "image" : "img/venues/loveless.jpg"},
		{"name" : "The Stone Fox", "address" : [{"street" : "712 51st AVe N", "city" : "Nashville", "state" : "TN", "zip" : "37209"}], "website" : "http://www.thestonefoxnashville.com", "image" : "img/venues/stonefox.jpg"},
		{"name" : "Zanie's", "address" : [{"street" : "2025 8th Ave S", "city" : "Nashville", "state" : "TN", "zip" : "37204"}], "website" : "http://www.zanies.com", "image" : "img/venues/zanies.jpg"},
		{"name" : "Station Inn", "address" : [{"street" : "402 12th Ave S", "city" : "Nashville", "state" : "TN", "zip" : "37203"}], "website" : "http://www.stationinn.com", "image" : "img/venues/stationinn.jpg"}
	]
}